NORAD_CAT_ID,OBJECT_NAME,OBJECT_TYPE,EPOCH,MEAN_MOTION,ECCENTRICITY,INCLINATION,RA_OF_ASC_NODE,ARG_OF_PERICENTER,MEAN_ANOMALY,BSTAR,MEAN_MOTION_DOT,MEAN_MOTION_DDOT,TLE_LINE0,TLE_LINE1,TLE_LINE2,SEMIMAJOR_AXIS,PERIOD,APOGEE,PERIGEE,DECAYED
53395.0,STARLINK-4534,PAYLOAD,2023-09-29 23:28:59,15.08856069,0.0001705,53.216,167.1771,111.2588,248.8587,0.00034348,5.185e-05,0.0,0 STARLINK-4534,1 53395U 22097H   23272.97846202  .00005185  00000-0  34348-3 0  9993,2 53395  53.2160 167.1771 0001705 111.2588 248.8587 15.08856069 63406,6917.831,95.437,540.876,538.517,0.0
53395.0,STARLINK-4534,PAYLOAD,2023-09-30 16:58:13,15.08844198,0.0001907,53.2172,163.9041,119.6027,240.5156,-3.8135e-05,-8.95e-06,0.0,0 STARLINK-4534,1 53395U 22097H   23273.70710163 -.00000895  00000-0 -38135-4 0  9995,2 53395  53.2172 163.9041 0001907 119.6027 240.5156 15.08844198 63510,6917.868,95.437,541.052,538.413,0.0
53395.0,STARLINK-4534,PAYLOAD,2023-09-30 23:19:46,15.08841299,0.0001545,53.2155,162.7181,108.2453,251.8707,6.2294e-06,-1.89e-06,0.0,0 STARLINK-4534,1 53395U 22097H   23273.97206282 -.00000189  00000-0  62294-5 0  9995,2 53395  53.2155 162.7181 0001545 108.2453 251.8707 15.08841299 64043,6917.876,95.437,540.81,538.673,0.0
53395.0,STARLINK-4534,PAYLOAD,2023-10-01 21:35:10,15.08848865,0.0001532,53.2161,158.5561,111.5099,248.6056,0.00050709,7.793e-05,0.0,0 STARLINK-4534,1 53395U 22097H   23274.89942389  .00007793  00000-0  50709-3 0  9995,2 53395  53.2161 158.5561 0001532 111.5099 248.6056 15.08848865 64186,6917.853,95.437,540.778,538.658,0.0
53395.0,STARLINK-4534,PAYLOAD,2023-10-01 23:10:33,15.08852188,0.0001402,53.2161,158.2605,106.6795,253.4351,0.00059651,9.221e-05,0.0,0 STARLINK-4534,1 53395U 22097H   23274.96566315  .00009221  00000-0  59651-3 0  9997,2 53395  53.2161 158.2605 0001402 106.6795 253.4351 15.08852188 63708,6917.843,95.437,540.678,538.738,0.0
53395.0,STARLINK-4534,PAYLOAD,2023-10-02 21:25:57,15.08849175,0.0001324,53.2148,154.0945,98.1268,261.9875,0.00033323,5.021e-05,0.0,0 STARLINK-4534,1 53395U 22097H   23275.89302274  .00005021  00000-0  33323-3 0  9994,2 53395  53.2148 154.0945 0001324  98.1268 261.9875 15.08849175 63849,6917.852,95.437,540.633,538.801,0.0
53395.0,STARLINK-4534,PAYLOAD,2023-10-03 08:33:39,15.08841642,0.0001219,53.2144,152.0128,91.8381,268.2751,0.00011956,1.616e-05,0.0,0 STARLINK-4534,1 53395U 22097H   23276.35670158  .00001616  00000-0  11956-3 0  9999,2 53395  53.2144 152.0128 0001219  91.8381 268.2751 15.08841642 63917,6917.875,95.437,540.584,538.897,0.0
53395.0,STARLINK-4534,PAYLOAD,2023-10-03 21:16:44,15.08832221,0.0001428,53.2144,149.6331,104.1241,255.991,1.7865e-05,-4e-08,0.0,0 STARLINK-4534,1 53395U 22097H   23276.88662719 -.00000004  00000-0  17865-4 0  9998,2 53395  53.2144 149.6331 0001428 104.1241 255.9910 15.08832221 63991,6917.904,95.438,540.757,538.781,0.0
53395.0,STARLINK-4534,PAYLOAD,2023-10-04 08:24:26,15.08842824,0.000126,53.2149,147.5522,96.3136,263.7999,0.00027968,4.166e-05,0.0,0 STARLINK-4534,1 53395U 22097H   23277.35030519  .00004166  00000-0  27968-3 0  9994,2 53395  53.2149 147.5522 0001260  96.3136 263.7999 15.08842824 64067,6917.872,95.437,540.608,538.865,0.0
53395.0,STARLINK-4534,PAYLOAD,2023-10-04 21:08:17,15.07433547,0.0004716,53.2145,145.1761,81.3765,278.7761,-0.028087,-0.00406936,0.0,0 STARLINK-4534,1 53395U 22097H   23277.88076127 -.00406936  00000-0 -28087-1 0  9991,2 53395  53.2145 145.1761 0004716  81.3765 278.7761 15.07433547 64636,6922.183,95.527,547.312,540.783,0.0
53395.0,STARLINK-4534,PAYLOAD,2023-10-05 00:18:17,15.08859343,0.0001079,53.2133,144.578,123.7146,236.3949,0.00048922,7.511e-05,0.0,0 STARLINK-4534,1 53395U 22097H   23278.01269810  .00007511  00000-0  48922-3 0  9996,2 53395  53.2133 144.5780 0001079 123.7146 236.3949 15.08859343 64163,6917.821,95.436,540.433,538.94,0.0
53395.0,STARLINK-4534,PAYLOAD,2023-10-05 08:15:13,15.08842722,0.0001424,53.2132,143.0924,88.9703,271.1452,8.5099e-05,1.067e-05,0.0,0 STARLINK-4534,1 53395U 22097H   23278.34390499  .00001067  00000-0  85099-4 0  9997,2 53395  53.2132 143.0924 0001424  88.9703 271.1452 15.08842722 64216,6917.872,95.437,540.722,538.752,0.0
53395.0,STARLINK-4534,PAYLOAD,2023-10-05 20:58:18,15.08839324,0.0001564,53.2157,140.7128,86.7476,273.3696,2.4465e-05,1.01e-06,0.0,0 STARLINK-4534,1 53395U 22097H   23278.87382753  .00000101  00000-0  24465-4 0  9997,2 53395  53.2157 140.7128 0001564  86.7476 273.3696 15.08839324 64781,6917.882,95.438,540.829,538.665,0.0
53395.0,STARLINK-4534,PAYLOAD,2023-10-06 09:41:24,15.08833345,0.0001481,53.2137,138.3351,81.9688,278.1472,-9.4241e-06,-4.38e-06,0.0,0 STARLINK-4534,1 53395U 22097H   23279.40375103 -.00000438  00000-0 -94241-5 0  9993,2 53395  53.2137 138.3351 0001481  81.9688 278.1472 15.08833345 64377,6917.901,95.438,540.79,538.741,0.0
53395.0,STARLINK-4534,PAYLOAD,2023-10-06 20:49:06,15.08829277,0.0001156,53.2137,136.2527,84.1257,275.9867,0.00022334,3.267e-05,0.0,0 STARLINK-4534,1 53395U 22097H   23279.86743517  .00003267  00000-0  22334-3 0  9994,2 53395  53.2137 136.2527 0001156  84.1257 275.9867 15.08829277 64939,6917.913,95.438,540.578,538.978,0.0
53395.0,STARLINK-4534,PAYLOAD,2023-10-07 14:18:19,15.08873245,0.0001258,53.2146,132.9805,82.8864,277.2271,0.00096758,0.00015159,0.0,0 STARLINK-4534,1 53395U 22097H   23280.59606000  .00015159  00000-0  96758-3 0  9995,2 53395  53.2146 132.9805 0001258  82.8864 277.2271 15.08873245 65044,6917.779,95.435,540.514,538.774,0.0
53395.0,STARLINK-4534,PAYLOAD,2023-10-07 20:39:52,15.08838619,0.0001048,53.2152,131.7919,46.3411,313.7668,-0.00018013,-3.153e-05,0.0,0 STARLINK-4534,1 53395U 22097H   23280.86102291 -.00003153  00000-0 -18013-3 0  9999,2 53395  53.2152 131.7919 0001048  46.3411 313.7668 15.08838619 64595,6917.885,95.438,540.475,539.025,0.0
53395.0,STARLINK-4534,PAYLOAD,2023-10-08 06:00:00,15.08840336,0.0001012,53.215,130.0458,87.3288,226.8086,-0.00097827,-0.00015823,0.0,0 STARLINK-4534,1 53395U 22097H   23281.25001157 -.00015823  00000-0 -97827-3 0  9999,2 53395  53.2150 130.0458 0001012  87.3288 226.8086 15.08840336 64655,6917.879,95.438,540.444,539.044,0.0
53395.0,STARLINK-4534,PAYLOAD,2023-10-08 14:00:01,15.08836558,0.0001067,53.2154,128.5485,98.2739,227.4508,0.0025894,0.00041159,0.0,0 STARLINK-4534,1 53395U 22097H   23281.58334491  .00041159  00000-0  25894-2 0  9998,2 53395  53.2154 128.5485 0001067  98.2739 227.4508 15.08836558  5813,6917.891,95.438,540.494,539.018,0.0
53395.0,STARLINK-4534,PAYLOAD,2023-10-08 22:00:00,15.08869756,0.0001059,53.2154,127.0539,89.4865,247.8496,-0.0045135,-0.00071464,0.0,0 STARLINK-4534,1 53395U 22097H   23281.91667824 -.00071464  00000-0 -45135-2 0  9998,2 53395  53.2154 127.0539 0001059  89.4865 247.8496 15.08869756 64756,6917.789,95.436,540.387,538.922,0.0
53395.0,STARLINK-4534,PAYLOAD,2023-10-08 23:41:26,15.08856497,0.0001091,53.2158,126.7355,90.1491,269.9626,0.0012607,0.00019842,0.0,0 STARLINK-4534,1 53395U 22097H   23281.98710823  .00019842  00000-0  12607-2 0  9991,2 53395  53.2158 126.7355 0001091  90.1491 269.9626 15.08856497 64761,6917.83,95.437,540.45,538.94,0.0
53395.0,STARLINK-4534,PAYLOAD,2023-10-09 13:59:54,15.08849766,0.0001771,53.2152,124.0559,91.4513,268.6682,0.00063669,9.862e-05,0.0,0 STARLINK-4534,1 53395U 22097H   23282.58327229  .00009862  00000-0  63669-3 0  9998,2 53395  53.2152 124.0559 0001771  91.4513 268.6682 15.08849766 65340,6917.851,95.437,540.941,538.49,0.0
53395.0,STARLINK-4534,PAYLOAD,2023-10-09 18:46:04,15.08839972,0.000133,53.2163,123.1615,117.5767,242.5361,0.00025254,3.734e-05,0.0,0 STARLINK-4534,1 53395U 22097H   23282.78199157  .00003734  00000-0  25254-3 0  9997,2 53395  53.2163 123.1615 0001330 117.5767 242.5361 15.08839972 64888,6917.88,95.438,540.666,538.825,0.0
53395.0,STARLINK-4534,PAYLOAD,2023-10-10 13:50:41,15.08841405,0.0001099,53.2162,119.5986,96.8752,263.2365,0.00026382,3.914e-05,0.0,0 STARLINK-4534,1 53395U 22097H   23283.57687405  .00003914  00000-0  26382-3 0  9996,2 53395  53.2162 119.5986 0001099  96.8752 263.2365 15.08841405 65498,6917.876,95.437,540.501,538.981,0.0
53395.0,STARLINK-4534,PAYLOAD,2023-10-10 20:12:14,15.08848481,9.52e-05,53.2154,118.4106,97.734,262.3761,0.00032722,4.925e-05,0.0,0 STARLINK-4534,1 53395U 22097H   23283.84183148  .00004925  00000-0  32722-3 0  9999,2 53395  53.2154 118.4106 0000952  97.7340 262.3761 15.08848481 65043,6917.854,95.437,540.378,539.061,0.0
53395.0,STARLINK-4534,PAYLOAD,2023-10-11 05:44:33,15.0884363,8.84e-05,53.2154,116.6246,92.808,267.3013,0.00024329,3.587e-05,0.0,0 STARLINK-4534,1 53395U 22097H   23284.23927119  .00003587  00000-0  24329-3 0  9994,2 53395  53.2154 116.6246 0000884  92.8080 267.3013 15.08843630 65102,6917.869,95.437,540.346,539.123,0.0
53395.0,STARLINK-4534,PAYLOAD,2023-10-11 20:03:01,15.08833696,0.0001152,53.2156,113.9497,97.4043,262.708,2.5706e-05,1.21e-06,0.0,0 STARLINK-4534,1 53395U 22097H   23284.83543865  .00000121  00000-0  25706-4 0  9994,2 53395  53.2156 113.9497 0001152  97.4043 262.7080 15.08833696 65194,6917.9,95.438,540.562,538.968,0.0
53395.0,STARLINK-4534,PAYLOAD,2023-10-12 05:35:20,15.08840856,0.000108,53.2166,112.1648,90.2084,269.9032,0.00010342,1.359e-05,0.0,0 STARLINK-4534,1 53395U 22097H   23285.23287716  .00001359  00000-0  10342-3 0  9992,2 53395  53.2166 112.1648 0001080  90.2084 269.9032 15.08840856 65743,6917.878,95.438,540.49,538.996,0.0
53395.0,STARLINK-4534,PAYLOAD,2023-10-12 19:53:48,15.08847889,0.000106,53.2171,109.4895,93.8078,266.3036,0.00013499,1.862e-05,0.0,0 STARLINK-4534,1 53395U 22097H   23285.82903234  .00001862  00000-0  13499-3 0  9992,2 53395  53.2171 109.4895 0001060  93.8078 266.3036 15.08847889 65346,6917.856,95.437,540.455,538.988,0.0
53395.0,STARLINK-4534,PAYLOAD,2023-10-13 11:47:40,15.08840253,0.0001227,53.2153,106.5149,85.8656,274.2476,7.7109e-05,9.4e-06,0.0,0 STARLINK-4534,1 53395U 22097H   23286.49143610  .00000940  00000-0  77109-4 0  9995,2 53395  53.2153 106.5149 0001227  85.8656 274.2476 15.08840253 65449,6917.88,95.438,540.593,538.896,0.0
